[{"OBJECT_NAME":"OOV-CUBE (TUBSAT-30)","OBJECT_ID":"2024-128F","EPOCH":"2026-03-04T00:55:02.962272","MEAN_MOTION":15.02197966,"ECCENTRICITY":0.0054992,"INCLINATION":61.9937,"RA_OF_ASC_NODE":232.0752,"ARG_OF_PERICENTER":111.2238,"MEAN_ANOMALY":249.4739,"EPHEMERIS_TYPE":0,"CLASSIFICATION_TYPE":"U","NORAD_CAT_ID":60240,"ELEMENT_SET_NO":999,"REV_AT_EPOCH":9031,"BSTAR":0.00038902,"MEAN_MOTION_DOT":5.107e-5,"MEAN_MOTION_DDOT":0}]
